OBJECT_NAME,OBJECT_ID,EPOCH,MEAN_MOTION,ECCENTRICITY,INCLINATION,RA_OF_ASC_NODE,ARG_OF_PERICENTER,MEAN_ANOMALY,EPHEMERIS_TYPE,CLASSIFICATION_TYPE,NORAD_CAT_ID,ELEMENT_SET_NO,REV_AT_EPOCH,BSTAR,MEAN_MOTION_DOT,MEAN_MOTION_DDOT
STARLINK-34581,2025-144X,2026-05-11T00:54:23.450688,15.30197225,.00010497,53.1580,251.7216,92.4505,267.6616,0,U,64745,999,4925,.21451147E-3,.5999E-4,0
STARLINK-34592,2025-144Y,2026-05-12T06:33:00.357120,15.30204508,.00012702,53.1594,233.1414,85.9492,274.1654,0,U,64746,999,4962,.34242806E-3,.9797E-4,0
STARLINK-34589,2025-144Z,2026-05-12T06:43:37.857792,15.30204092,.00015004,53.1583,233.1227,84.6123,275.5049,0,U,64747,999,4962,.5803623E-3,.16871E-3,0
STARLINK-34536,2025-144AA,2026-05-11T17:41:38.362848,15.30226435,.00011443,53.1589,248.2630,81.4109,278.7022,0,U,64748,999,4936,.67074029E-3,.19575E-3,0
STARLINK-34595,2025-144AB,2026-05-12T07:49:37.196544,15.30214235,.00017393,53.1587,245.5361,103.3449,256.7746,0,U,64749,999,4945,.70532155E-3,.20598E-3,0
STARLINK-34531,2025-144AC,2026-05-12T07:25:18.371424,15.30209319,.00014402,53.1586,245.4359,95.1379,264.9787,0,U,64750,999,4945,.43557581E-3,.12567E-3,0
SHIYAN-28B 01,2025-145A,2026-05-12T08:08:13.349760,14.29385585,.00027975,10.9980,200.1387,43.3291,316.7157,0,U,64753,999,4477,.49490945E-4,.56E-5,0
STARLINK-33965,2025-147A,2026-05-12T05:07:10.686432,15.34393222,.00016737,53.1606,307.2594,94.1624,265.9570,0,U,64755,999,4852,.63751098E-3,.21219E-3,0
STARLINK-34371,2025-147B,2026-05-11T20:44:30.976224,15.31712654,.00012937,53.1593,309.3420,85.0784,275.0365,0,U,64756,999,4837,.29519734E-3,.881E-4,0
STARLINK-34401,2025-147C,2026-05-11T18:43:55.827264,15.34400832,.00007605,53.1599,309.5329,94.3649,265.7441,0,U,64757,999,4834,.36817458E-3,.12084E-3,0
STARLINK-34593,2025-147D,2026-05-11T19:29:15.007200,15.34403788,.00008577,53.1620,309.0174,78.5563,281.5536,0,U,64758,999,4842,.40558102E-3,.13353E-3,0
STARLINK-34598,2025-147E,2026-05-11T18:42:25.156512,15.30140527,.00014701,53.1589,309.5226,93.4278,266.6891,0,U,64759,999,4836,.34479519E-2,.102993E-2,0
STARLINK-34235,2025-147F,2026-05-12T04:31:02.496576,15.30209122,.00005872,53.1589,307.8110,90.7764,269.3304,0,U,64760,999,4851,.4844984E-3,.14022E-3,0
STARLINK-34635,2025-147G,2026-05-11T18:43:55.867008,15.30203063,.00011901,53.1601,309.5330,91.9939,268.1198,0,U,64761,999,4841,.52280547E-3,.15158E-3,0
STARLINK-34638,2025-147H,2026-05-12T05:10:12.207648,15.34412233,.00005341,53.1627,307.2685,75.3240,284.7822,0,U,64762,999,4848,.51146913E-3,.16951E-3,0
STARLINK-34534,2025-147J,2026-05-11T18:49:59.556576,15.34403288,.00011227,53.1598,309.5562,79.1905,280.9224,0,U,64763,999,4841,.69038311E-3,.23024E-3,0
STARLINK-34261,2025-147K,2026-05-12T05:01:06.894048,15.34400506,.00012414,53.1612,307.2264,95.1234,264.9910,0,U,64764,999,4852,.30319383E-3,.9881E-4,0
STARLINK-34566,2025-147L,2026-05-11T21:36:22.507200,15.34401423,.0001301,53.1608,308.8545,83.8480,276.2671,0,U,64765,999,4843,.49261E-3,.16304E-3,0
STARLINK-34645,2025-147M,2026-05-12T05:16:37.926624,15.30204427,.00015621,53.1608,308.0022,96.4106,263.7072,0,U,64766,999,4847,.19274317E-3,.5354E-4,0
STARLINK-34639,2025-147N,2026-05-12T00:00:02.000160,15.34407795,.00011158,53.1588,308.4564,74.0651,82.4794,0,U,64767,999,568,.14168603E-2,.47812E-3,0
STARLINK-34609,2025-147P,2026-05-12T04:28:07.714560,15.30212349,.00004886,53.1606,297.8570,112.3189,247.7864,0,U,64768,999,4861,.58981762E-3,.17157E-3,0
STARLINK-34246,2025-147Q,2026-05-12T05:16:15.733056,15.34412469,.00003836,53.1613,307.2959,31.2127,328.8899,0,U,64769,999,4848,.55911074E-3,.18569E-3,0
STARLINK-34618,2025-147R,2026-05-12T04:49:00.613056,15.34421288,.0001142,53.1606,307.1778,81.9556,278.1576,0,U,64770,999,4841,.42309277E-3,.13955E-3,0
STARLINK-34541,2025-147S,2026-05-12T06:00:02.999808,15.34382194,.00009213,53.1603,307.1279,73.9491,105.8508,0,U,64771,999,577,.38371056E-3,.12603E-3,0
STARLINK-34652,2025-147T,2026-05-12T06:00:02.999808,15.33548332,.00013361,53.1602,307.1593,88.4433,74.8350,0,U,64772,999,577,.54172327E-3,.17484E-3,0
STARLINK-34612,2025-147U,2026-05-12T05:04:08.223456,15.34363612,.00030983,53.1607,307.2380,86.8625,273.2732,0,U,64773,999,4848,.31540411E-3,.10283E-3,0
STARLINK-34621,2025-147V,2026-05-12T05:07:30.623232,15.30205812,.00005954,53.1623,307.9620,86.9262,273.1807,0,U,64774,999,4840,.38825078E-3,.11159E-3,0
STARLINK-34657,2025-147W,2026-05-11T18:40:54.084000,15.34403454,.00010418,53.1598,309.5130,79.9858,280.1262,0,U,64775,999,4841,.48812743E-3,.16153E-3,0
STARLINK-34637,2025-147X,2026-05-12T04:21:51.165216,15.34403553,.00008723,53.1594,307.7654,70.3756,289.7341,0,U,64776,999,4840,.33984044E-3,.11124E-3,0
STARLINK-34547,2025-147Y,2026-05-11T18:01:30.802944,15.34402462,.00010028,53.1615,309.3429,99.3905,260.7211,0,U,64777,999,4835,.40088474E-3,.13193E-3,0
