STARLINK-34581          
1 64745U 25144X   26131.03777142  .00005999  00000+0  21451-3 0  9993
2 64745  53.1580 251.7216 0001049  92.4505 267.6616 15.30197225 49252
STARLINK-34592          
1 64746U 25144Y   26132.27292080  .00009797  00000+0  34243-3 0  9997
2 64746  53.1594 233.1414 0001270  85.9492 274.1654 15.30204508 49629
STARLINK-34589          
1 64747U 25144Z   26132.28029928  .00016871  00000+0  58036-3 0  9995
2 64747  53.1583 233.1227 0001500  84.6123 275.5049 15.30204092 49624
STARLINK-34536          
1 64748U 25144AA  26131.73724957  .00019575  00000+0  67074-3 0  9995
2 64748  53.1589 248.2630 0001144  81.4109 278.7022 15.30226435 49361
STARLINK-34595          
1 64749U 25144AB  26132.32612496  .00020598  00000+0  70532-3 0  9996
2 64749  53.1587 245.5361 0001739 103.3449 256.7746 15.30214235 49456
STARLINK-34531          
1 64750U 25144AC  26132.30924041  .00012567  00000+0  43558-3 0  9993
2 64750  53.1586 245.4359 0001440  95.1379 264.9787 15.30209319 49455
SHIYAN-28B 01           
1 64753U 25145A   26132.33904340  .00000560  00000+0  49491-4 0  9993
2 64753  10.9980 200.1387 0002797  43.3291 316.7157 14.29385585 44774
STARLINK-33965          
1 64755U 25147A   26132.21331813  .00021219  00000+0  63751-3 0  9991
2 64755  53.1606 307.2594 0001673  94.1624 265.9570 15.34393222 48520
STARLINK-34371          
1 64756U 25147B   26131.86424741  .00008810  00000+0  29520-3 0  9993
2 64756  53.1593 309.3420 0001293  85.0784 275.0365 15.31712654 48379
STARLINK-34401          
1 64757U 25147C   26131.78050726  .00012084  00000+0  36817-3 0  9998
2 64757  53.1599 309.5329 0000760  94.3649 265.7441 15.34400832 48340
STARLINK-34593          
1 64758U 25147D   26131.81197925  .00013353  00000+0  40558-3 0  9993
2 64758  53.1620 309.0174 0000857  78.5563 281.5536 15.34403788 48428
STARLINK-34598          
1 64759U 25147E   26131.77945783  .00102993  00000+0  34480-2 0  9997
2 64759  53.1589 309.5226 0001470  93.4278 266.6891 15.30140527 48363
STARLINK-34235          
1 64760U 25147F   26132.18822334  .00014022  00000+0  48450-3 0  9999
2 64760  53.1589 307.8110 0000587  90.7764 269.3304 15.30209122 48519
STARLINK-34635          
1 64761U 25147G   26131.78050772  .00015158  00000+0  52281-3 0  9992
2 64761  53.1601 309.5330 0001190  91.9939 268.1198 15.30203063 48411
STARLINK-34638          
1 64762U 25147H   26132.21541907  .00016951  00000+0  51147-3 0  9999
2 64762  53.1627 307.2685 0000534  75.3240 284.7822 15.34412233 48480
STARLINK-34534          
1 64763U 25147J   26131.78471709  .00023024  00000+0  69038-3 0  9990
2 64763  53.1598 309.5562 0001122  79.1905 280.9224 15.34403288 48418
STARLINK-34261          
1 64764U 25147K   26132.20910757  .00009881  00000+0  30319-3 0  9995
2 64764  53.1612 307.2264 0001241  95.1234 264.9910 15.34400506 48521
STARLINK-34566          
1 64765U 25147L   26131.90026050  .00016304  00000+0  49261-3 0  9990
2 64765  53.1608 308.8545 0001301  83.8480 276.2671 15.34401423 48439
STARLINK-34645          
1 64766U 25147M   26132.21988341  .00005354  00000+0  19274-3 0  9990
2 64766  53.1608 308.0022 0001562  96.4106 263.7072 15.30204427 48477
STARLINK-34639          
1 64767U 25147N   26132.00002315  .00047812  00000+0  14169-2 0  9998
2 64767  53.1588 308.4564 0001115  74.0651  82.4794 15.34407795  5681
STARLINK-34609          
1 64768U 25147P   26132.18620040  .00017157  00000+0  58982-3 0  9990
2 64768  53.1606 297.8570 0000488 112.3189 247.7864 15.30212349 48614
STARLINK-34246          
1 64769U 25147Q   26132.21962654  .00018569  00000+0  55911-3 0  9992
2 64769  53.1613 307.2959 0000383  31.2127 328.8899 15.34412469 48488
STARLINK-34618          
1 64770U 25147R   26132.20070154  .00013955  00000+0  42309-3 0  9999
2 64770  53.1606 307.1778 0001142  81.9556 278.1576 15.34421288 48413
STARLINK-34541          
1 64771U 25147S   26132.25003472  .00012603  00000+0  38371-3 0  9997
2 64771  53.1603 307.1279 0000921  73.9491 105.8508 15.34382194  5775
STARLINK-34652          
1 64772U 25147T   26132.25003472  .00017484  00000+0  54172-3 0  9997
2 64772  53.1602 307.1593 0001336  88.4433  74.8350 15.33548332  5779
STARLINK-34612          
1 64773U 25147U   26132.21120629  .00010283  00000+0  31540-3 0  9992
2 64773  53.1607 307.2380 0003098  86.8625 273.2732 15.34363612 48483
STARLINK-34621          
1 64774U 25147V   26132.21354888  .00011159  00000+0  38825-3 0  9995
2 64774  53.1623 307.9620 0000595  86.9262 273.1807 15.30205812 48400
STARLINK-34657          
1 64775U 25147W   26131.77840375  .00016153  00000+0  48813-3 0  9994
2 64775  53.1598 309.5130 0001041  79.9858 280.1262 15.34403454 48416
STARLINK-34637          
1 64776U 25147X   26132.18184219  .00011124  00000+0  33984-3 0  9995
2 64776  53.1594 307.7654 0000872  70.3756 289.7341 15.34403553 48409
STARLINK-34547          
1 64777U 25147Y   26131.75105096  .00013193  00000+0  40088-3 0  9995
2 64777  53.1615 309.3429 0001002  99.3905 260.7211 15.34402462 48352
